{
  "type": "FeatureCollection",
  "features": [
    {
      "type": "Feature",
      "properties": {
        "norad_id": 34299,
        "name": "COSMOS 2251 DEB",
        "group": "cosmos-2251-debris",
        "lat": -42.546405596487,
        "lon": -177.06062633520693,
        "alt_km": 399.41722782780926,
        "timestamp": "2025-12-06T22:38:43.122960+00:00",
        "meta_object_name": "COSMOS 2251 DEB",
        "meta_object_id": "1993-036MV",
        "meta_epoch": "2025-12-06T00:10:51.485376",
        "meta_mean_motion": 15.62377757,
        "meta_eccentricity": 0.00238764,
        "meta_inclination": 73.9806,
        "meta_ra_of_asc_node": 349.7489,
        "meta_arg_of_pericenter": 59.1912,
        "meta_mean_anomaly": 301.1652,
        "meta_ephemeris_type": 0,
        "meta_classification_type": "U",
        "meta_norad_cat_id": 34299,
        "meta_element_set_no": 999,
        "meta_rev_at_epoch": 88905,
        "meta_bstar": 0.0065916463,
        "meta_mean_motion_dot": 0.00638425,
        "meta_mean_motion_ddot": 0,
        "tle_line1": "1 34299U 93036MV  25340.00754034  .00638425  00000+0  65916-2 0  9991",
        "tle_line2": "2 34299  73.9806 349.7489 0023876  59.1912 301.1652 15.62377757889057"
      },
      "geometry": {
        "type": "Point",
        "coordinates": [
          -177.06062633520693,
          -42.546405596487
        ]
      }
    },
    {
      "type": "Feature",
      "properties": {
        "norad_id": 34301,
        "name": "COSMOS 2251 DEB",
        "group": "cosmos-2251-debris",
        "lat": -40.091079804542616,
        "lon": 12.191297568984746,
        "alt_km": 614.375790014934,
        "timestamp": "2025-12-06T22:38:43.122970+00:00",
        "meta_object_name": "COSMOS 2251 DEB",
        "meta_object_id": "1993-036MX",
        "meta_epoch": "2025-12-06T15:26:49.136064",
        "meta_mean_motion": 14.841181,
        "meta_eccentricity": 0.00119719,
        "meta_inclination": 74.0051,
        "meta_ra_of_asc_node": 178.8136,
        "meta_arg_of_pericenter": 237.7171,
        "meta_mean_anomaly": 182.4732,
        "meta_ephemeris_type": 0,
        "meta_classification_type": "U",
        "meta_norad_cat_id": 34301,
        "meta_element_set_no": 999,
        "meta_rev_at_epoch": 88310,
        "meta_bstar": 0.0048854171,
        "meta_mean_motion_dot": 0.0004106,
        "meta_mean_motion_ddot": 0,
        "tle_line1": "1 34301U 93036MX  25340.64362426  .00041060  00000+0  48854-2 0  9990",
        "tle_line2": "2 34301  74.0051 178.8136 0011971 237.7171 182.4732 14.84118100883106"
      },
      "geometry": {
        "type": "Point",
        "coordinates": [
          12.191297568984746,
          -40.091079804542616
        ]
      }
    },
    {
      "type": "Feature",
      "properties": {
        "norad_id": 34302,
        "name": "COSMOS 2251 DEB",
        "group": "cosmos-2251-debris",
        "lat": 10.227507809638313,
        "lon": -48.746514563912875,
        "alt_km": 817.9657015495895,
        "timestamp": "2025-12-06T22:38:43.122981+00:00",
        "meta_object_name": "COSMOS 2251 DEB",
        "meta_object_id": "1993-036MY",
        "meta_epoch": "2025-12-06T14:03:47.209248",
        "meta_mean_motion": 14.39295236,
        "meta_eccentricity": 0.00784,
        "meta_inclination": 74.1778,
        "meta_ra_of_asc_node": 134.8403,
        "meta_arg_of_pericenter": 351.8544,
        "meta_mean_anomaly": 125.2761,
        "meta_ephemeris_type": 0,
        "meta_classification_type": "U",
        "meta_norad_cat_id": 34302,
        "meta_element_set_no": 999,
        "meta_rev_at_epoch": 87632,
        "meta_bstar": 0.0011160789,
        "meta_mean_motion_dot": 3.568e-05,
        "meta_mean_motion_ddot": 0,
        "tle_line1": "1 34302U 93036MY  25340.58596307  .00003568  00000+0  11161-2 0  9993",
        "tle_line2": "2 34302  74.1778 134.8403 0078400 351.8544 125.2761 14.39295236876324"
      },
      "geometry": {
        "type": "Point",
        "coordinates": [
          -48.746514563912875,
          10.227507809638313
        ]
      }
    },
    {
      "type": "Feature",
      "properties": {
        "norad_id": 34303,
        "name": "COSMOS 2251 DEB",
        "group": "cosmos-2251-debris",
        "lat": 34.25093551302724,
        "lon": -49.71140088575579,
        "alt_km": 638.3151451372105,
        "timestamp": "2025-12-06T22:38:43.122991+00:00",
        "meta_object_name": "COSMOS 2251 DEB",
        "meta_object_id": "1993-036MZ",
        "meta_epoch": "2025-12-06T15:00:52.015392",
        "meta_mean_motion": 14.54329115,
        "meta_eccentricity": 0.01349577,
        "meta_inclination": 74.0059,
        "meta_ra_of_asc_node": 299.6288,
        "meta_arg_of_pericenter": 79.5475,
        "meta_mean_anomaly": 93.4342,
        "meta_ephemeris_type": 0,
        "meta_classification_type": "U",
        "meta_norad_cat_id": 34303,
        "meta_element_set_no": 999,
        "meta_rev_at_epoch": 87873,
        "meta_bstar": 0.0022450792,
        "meta_mean_motion_dot": 0.0001075,
        "meta_mean_motion_ddot": 0,
        "tle_line1": "1 34303U 93036MZ  25340.62560203  .00010750  00000+0  22451-2 0  9990",
        "tle_line2": "2 34303  74.0059 299.6288 0134957  79.5475  93.4342 14.54329115878733"
      },
      "geometry": {
        "type": "Point",
        "coordinates": [
          -49.71140088575579,
          34.25093551302724
        ]
      }
    },
    {
      "type": "Feature",
      "properties": {
        "norad_id": 34304,
        "name": "COSMOS 2251 DEB",
        "group": "cosmos-2251-debris",
        "lat": 44.619758411169116,
        "lon": -63.14780855509936,
        "alt_km": 830.9530783895871,
        "timestamp": "2025-12-06T22:38:43.123001+00:00",
        "meta_object_name": "COSMOS 2251 DEB",
        "meta_object_id": "1993-036NA",
        "meta_epoch": "2025-12-06T04:29:13.454592",
        "meta_mean_motion": 14.37764066,
        "meta_eccentricity": 0.01289049,
        "meta_inclination": 74.0128,
        "meta_ra_of_asc_node": 134.6809,
        "meta_arg_of_pericenter": 273.8055,
        "meta_mean_anomaly": 265.6188,
        "meta_ephemeris_type": 0,
        "meta_classification_type": "U",
        "meta_norad_cat_id": 34304,
        "meta_element_set_no": 999,
        "meta_rev_at_epoch": 87202,
        "meta_bstar": 0.0021851692,
        "meta_mean_motion_dot": 7.22e-05,
        "meta_mean_motion_ddot": 0,
        "tle_line1": "1 34304U 93036NA  25340.18696128  .00007220  00000+0  21852-2 0  9990",
        "tle_line2": "2 34304  74.0128 134.6809 0128904 273.8055 265.6188 14.37764066872022"
      },
      "geometry": {
        "type": "Point",
        "coordinates": [
          -63.14780855509936,
          44.619758411169116
        ]
      }
    },
    {
      "type": "Feature",
      "properties": {
        "norad_id": 34307,
        "name": "COSMOS 2251 DEB",
        "group": "cosmos-2251-debris",
        "lat": -69.27634491138375,
        "lon": -86.67070207735655,
        "alt_km": 1238.9943514282295,
        "timestamp": "2025-12-06T22:38:43.123011+00:00",
        "meta_object_name": "COSMOS 2251 DEB",
        "meta_object_id": "1993-036ND",
        "meta_epoch": "2025-12-06T09:36:06.433344",
        "meta_mean_motion": 13.54308603,
        "meta_eccentricity": 0.03922456,
        "meta_inclination": 74.053,
        "meta_ra_of_asc_node": 323.2886,
        "meta_arg_of_pericenter": 155.6194,
        "meta_mean_anomaly": 355.4854,
        "meta_ephemeris_type": 0,
        "meta_classification_type": "U",
        "meta_norad_cat_id": 34307,
        "meta_element_set_no": 999,
        "meta_rev_at_epoch": 82776,
        "meta_bstar": 0.00098411458,
        "meta_mean_motion_dot": 1.076e-05,
        "meta_mean_motion_ddot": 0,
        "tle_line1": "1 34307U 93036ND  25340.40007446  .00001076  00000+0  98411-3 0  9996",
        "tle_line2": "2 34307  74.0530 323.2886 0392245 155.6194 355.4854 13.54308603827763"
      },
      "geometry": {
        "type": "Point",
        "coordinates": [
          -86.67070207735655,
          -69.27634491138375
        ]
      }
    },
    {
      "type": "Feature",
      "properties": {
        "norad_id": 34313,
        "name": "COSMOS 2251 DEB",
        "group": "cosmos-2251-debris",
        "lat": -62.61539481169771,
        "lon": 171.36808932114027,
        "alt_km": 526.7212639164327,
        "timestamp": "2025-12-06T22:38:43.123022+00:00",
        "meta_object_name": "COSMOS 2251 DEB",
        "meta_object_id": "1993-036NK",
        "meta_epoch": "2025-12-06T08:54:08.946432",
        "meta_mean_motion": 15.17569015,
        "meta_eccentricity": 0.00110915,
        "meta_inclination": 73.9719,
        "meta_ra_of_asc_node": 318.86,
        "meta_arg_of_pericenter": 89.1454,
        "meta_mean_anomaly": 271.1012,
        "meta_ephemeris_type": 0,
        "meta_classification_type": "U",
        "meta_norad_cat_id": 34313,
        "meta_element_set_no": 999,
        "meta_rev_at_epoch": 88968,
        "meta_bstar": 0.0066027301,
        "meta_mean_motion_dot": 0.00135314,
        "meta_mean_motion_ddot": 0,
        "tle_line1": "1 34313U 93036NK  25340.37093688  .00135314  00000+0  66027-2 0  9992",
        "tle_line2": "2 34313  73.9719 318.8600 0011091  89.1454 271.1012 15.17569015889684"
      },
      "geometry": {
        "type": "Point",
        "coordinates": [
          171.36808932114027,
          -62.61539481169771
        ]
      }
    }
  ]
}